*******************************************************************************
Ephemeris / WWW_USER Tue Mar 27 20:28:06 2018 Pasadena, USA      / Horizons    
*******************************************************************************
Target body name: Miranda (705)                   {source: ura111}
Center body name: Solar System Barycenter (0)     {source: DE431mx}
Center-site name: BODY CENTER
*******************************************************************************
Start time      : A.D. 2000-Jan-01 00:00:00.0000 TDB
Stop  time      : A.D. 2010-Jan-01 00:00:00.0000 TDB
Step-size       : 7200 minutes
*******************************************************************************
Center geodetic : 0.00000000,0.00000000,0.0000000 {E-lon(deg),Lat(deg),Alt(km)}
Center cylindric: 0.00000000,0.00000000,0.0000000 {E-lon(deg),Dxy(km),Dz(km)}
Center radii    : (undefined)                                                  
Output units    : AU-D                                                         
Output type     : GEOMETRIC cartesian states
Output format   : 2 (position and velocity)
Reference frame : ICRF/J2000.0                                                 
Coordinate systm: Ecliptic and Mean Equinox of Reference Epoch                 
*******************************************************************************
JDTDB
   X     Y     Z
   VX    VY    VZ
*******************************************************************************
$$SOE
2453434.500000000 = A.D. 2005-Mar-05 00:00:00.0000 TDB 
   1.843854450387292E+01 -7.910773406450011E+00 -2.690350439414426E-01
  -1.899755482079491E-03  3.845868905572232E-03 -1.735356458464452E-03
2453439.500000000 = A.D. 2005-Mar-10 00:00:00.0000 TDB 
   1.844563425132840E+01 -7.893147987728401E+00 -2.674904775046233E-01
   5.213720650366066E-03  2.769773982677657E-03  8.866762006648639E-04
2453444.500000000 = A.D. 2005-Mar-15 00:00:00.0000 TDB 
   1.845334414710498E+01 -7.876377479340703E+00 -2.691986562006038E-01
  -2.243555230907012E-03  4.303523705511585E-03 -3.430180532430492E-05
2453449.500000000 = A.D. 2005-Mar-20 00:00:00.0000 TDB 
   1.846117879643554E+01 -7.858897778846015E+00 -2.675574986295960E-01
   5.126845688403028E-03  2.403502358946505E-03 -8.665587879312441E-04
2453454.500000000 = A.D. 2005-Mar-25 00:00:00.0000 TDB 
   1.846808305999198E+01 -7.841913388917099E+00 -2.691776453030835E-01
  -1.775174204953707E-03  4.573777559093767E-03  1.676738927953867E-03
2453459.500000000 = A.D. 2005-Mar-30 00:00:00.0000 TDB 
   1.847660545910971E+01 -7.824646763993484E+00 -2.678018982693696E-01
   4.260191495872601E-03  2.261318466238331E-03 -2.432672134819673E-03
2453464.500000000 = A.D. 2005-Apr-04 00:00:00.0000 TDB 
   1.848284346355634E+01 -7.807404781101291E+00 -2.689911241994751E-01
  -5.928904690690213E-04  4.596259859756375E-03  3.026569070026027E-03
2453469.500000000 = A.D. 2005-Apr-09 00:00:00.0000 TDB 
   1.849183995865480E+01 -7.790369111239953E+00 -2.681855594862065E-01
   2.799617704715734E-03  2.375357682520428E-03 -3.474200411299703E-03
2453474.500000000 = A.D. 2005-Apr-14 00:00:00.0000 TDB 
   1.849768884744405E+01 -7.772879059608610E+00 -2.686939810696353E-01
   1.045229635433253E-03  4.365014212303037E-03  3.718245215209798E-03
2453479.500000000 = A.D. 2005-Apr-19 00:00:00.0000 TDB 
   1.850683489197814E+01 -7.756038408572275E+00 -2.686400441489658E-01
   1.060185866507488E-03  2.721850092031887E-03 -3.766474563429615E-03
2453484.500000000 = A.D. 2005-Apr-24 00:00:00.0000 TDB 
   1.851264882459026E+01 -7.738360983703549E+00 -2.683647487284345E-01
   2.779806808698071E-03  3.931176453939686E-03  3.601716970669515E-03
2453489.500000000 = A.D. 2005-Apr-29 00:00:00.0000 TDB 
   1.852158086138065E+01 -7.721633761330913E+00 -2.690814435960243E-01
  -5.847713756618703E-04  3.226042720731265E-03 -3.249399350608414E-03
2453494.500000000 = A.D. 2005-May-04 00:00:00.0000 TDB 
   1.852771290060474E+01 -7.703867400654109E+00 -2.680891605139670E-01
   4.232302807927257E-03  3.390194204294952E-03  2.703415342562213E-03
2453499.500000000 = A.D. 2005-May-09 00:00:00.0000 TDB 
   1.853610668308269E+01 -7.687143967155265E+00 -2.694285297076144E-01
  -1.785265883801567E-03  3.780227035144352E-03 -2.033553498665859E-03
2453504.500000000 = A.D. 2005-May-14 00:00:00.0000 TDB 
   1.854283387025109E+01 -7.669403749324609E+00 -2.679410011488929E-01
   5.087373771126478E-03  2.860833303553676E-03  1.218992443365960E-03
2453509.500000000 = A.D. 2005-May-19 00:00:00.0000 TDB 
   1.855047363521657E+01 -7.652570032731177E+00 -2.696199913411176E-01
  -2.282418459368862E-03  4.264974232244281E-03 -3.766521736757207E-04
2453514.500000000 = A.D. 2005-May-24 00:00:00.0000 TDB 
   1.855793785510025E+01 -7.634962761042115E+00 -2.679657560807643E-01
   5.158691030613543E-03  2.459706109765472E-03 -5.293754598837742E-04
2453519.500000000 = A.D. 2005-May-29 00:00:00.0000 TDB 
   1.856476350594349E+01 -7.617925385445111E+00 -2.696280993381862E-01
  -1.966849487439551E-03  4.574120186972388E-03  1.363471763077100E-03
2453524.500000000 = A.D. 2005-Jun-03 00:00:00.0000 TDB 
   1.857293901197675E+01 -7.600525756554440E+00 -2.681710004833736E-01
   4.431469272628161E-03  2.275446656627962E-03 -2.161134162136323E-03
2453529.500000000 = A.D. 2005-Jun-08 00:00:00.0000 TDB 
   1.857906054691665E+01 -7.583232863019685E+00 -2.694641758097825E-01
  -9.078780603036519E-04  4.639700537523818E-03  2.808661650507156E-03
2453534.500000000 = A.D. 2005-Jun-13 00:00:00.0000 TDB 
   1.858775969660309E+01 -7.566067226613866E+00 -2.685253011266112E-01
   3.065852656649844E-03  2.348199552473461E-03 -3.324791995435902E-03
2453539.500000000 = A.D. 2005-Jun-18 00:00:00.0000 TDB 
   1.859343209226766E+01 -7.548519598532320E+00 -2.691764196119197E-01
   6.643164064970447E-04  4.446944805483031E-03  3.645300559348455E-03
2453544.500000000 = A.D. 2005-Jun-23 00:00:00.0000 TDB 
   1.860234745901964E+01 -7.531560544610080E+00 -2.689656509745191E-01
   1.355048058257631E-03  2.662524249274356E-03 -3.773767569099561E-03
2453549.500000000 = A.D. 2005-Jun-28 00:00:00.0000 TDB 
   1.860791427536576E+01 -7.513811264934728E+00 -2.688400263629621E-01
   2.408280596873122E-03  4.037480568399934E-03  3.691192498286689E-03
2453554.500000000 = A.D. 2005-Jul-03 00:00:00.0000 TDB 
   1.861668512547372E+01 -7.496983386725373E+00 -2.694098798182564E-01
  -3.364371698941859E-04  3.151863735288855E-03 -3.411246416294810E-03
2453559.500000000 = A.D. 2005-Jul-08 00:00:00.0000 TDB 
   1.862250520843513E+01 -7.479126686973967E+00 -2.685408748850768E-01
   3.942762201143496E-03  3.501062049709671E-03  2.934467798771585E-03
2453564.500000000 = A.D. 2005-Jul-13 00:00:00.0000 TDB 
   1.863079414591024E+01 -7.462322484467725E+00 -2.697744728665254E-01
  -1.644748195159542E-03  3.711118303401177E-03 -2.313136315801198E-03
2453569.500000000 = A.D. 2005-Jul-18 00:00:00.0000 TDB 
   1.863716444109208E+01 -7.444473448679833E+00 -2.683565526483260E-01
   4.930792480852645E-03  2.956265814152378E-03  1.540038620792965E-03
2453574.500000000 = A.D. 2005-Jul-23 00:00:00.0000 TDB 
   1.864473057500055E+01 -7.427576813932286E+00 -2.699931471704147E-01
  -2.288896218144199E-03  4.219046171606951E-03 -7.162877820774601E-04
2453579.500000000 = A.D. 2005-Jul-28 00:00:00.0000 TDB 
   1.865182133524652E+01 -7.409846054209835E+00 -2.683387451261289E-01
   5.158638634228566E-03  2.523461391528170E-03 -1.856686896273681E-04
2453584.500000000 = A.D. 2005-Aug-02 00:00:00.0000 TDB 
   1.865857337895504E+01 -7.392758021402633E+00 -2.700310333235159E-01
  -2.131538577367737E-03  4.565727476044385E-03  1.036102694335568E-03
2453589.500000000 = A.D. 2005-Aug-07 00:00:00.0000 TDB 
   1.866639149434597E+01 -7.375227486390433E+00 -2.685032553905346E-01
   4.580226405019428E-03  2.297042542574676E-03 -1.869332000475107E-03
2453594.500000000 = A.D. 2005-Aug-12 00:00:00.0000 TDB 
   1.867240699314677E+01 -7.357887667297709E+00 -2.698913375238502E-01
  -1.205297794457453E-03  4.675210940532647E-03  2.567081253697973E-03
2453599.500000000 = A.D. 2005-Aug-17 00:00:00.0000 TDB 
   1.868079514466358E+01 -7.340593086556843E+00 -2.688266695610947E-01
   3.319703619642183E-03  2.326788313101182E-03 -3.149757476977078E-03
2453604.500000000 = A.D. 2005-Aug-22 00:00:00.0000 TDB 
   1.868630305219430E+01 -7.322992687604688E+00 -2.696152117570550E-01
   2.908941511735658E-04  4.522452346714051E-03  3.543535481467014E-03
2453609.500000000 = A.D. 2005-Aug-27 00:00:00.0000 TDB 
   1.869497379819342E+01 -7.305915597004740E+00 -2.692504818238636E-01
   1.648213991348947E-03  2.607457068556591E-03 -3.750575551263717E-03
2453614.500000000 = A.D. 2005-Sep-01 00:00:00.0000 TDB 
   1.870030523547034E+01 -7.288099893036708E+00 -2.692745005377716E-01
   2.030557219601214E-03  4.139974951733219E-03  3.749609432838518E-03
2453619.500000000 = A.D. 2005-Sep-06 00:00:00.0000 TDB 
   1.870890219385944E+01 -7.271171053026534E+00 -2.696940600017674E-01
  -7.365577677785765E-05  3.078314273982559E-03 -3.543718973331127E-03
2453624.500000000 = A.D. 2005-Sep-11 00:00:00.0000 TDB 
   1.871441936741777E+01 -7.253229885522431E+00 -2.689549929041123E-01
   3.631048698703092E-03  3.612542880914525E-03  3.140432575547396E-03
2453629.500000000 = A.D. 2005-Sep-16 00:00:00.0000 TDB 
   1.872259437293454E+01 -7.236344440118311E+00 -2.700732022754831E-01
  -1.478220349270199E-03  3.638041495227760E-03 -2.575471393050607E-03
2453634.500000000 = A.D. 2005-Sep-21 00:00:00.0000 TDB 
   1.872861195697289E+01 -7.218392214231515E+00 -2.687367004972149E-01
   4.744431714714141E-03  3.056394895508592E-03  1.850776569468306E-03
2453639.500000000 = A.D. 2005-Sep-26 00:00:00.0000 TDB 
   1.873610078914574E+01 -7.201432849497297E+00 -2.703177361887030E-01
  -2.266306735034182E-03  4.166547663894732E-03 -1.051938754532967E-03
